GLOBALSTAR M063         
1 26081U 00008A   25308.15134162 -.00000078  00000+0  74287-4 0  9993
2 26081  51.9930 102.9515 0004182 209.6442 321.6001 11.86176988174180
GLOBALSTAR M062         
1 26082U 00008B   25308.47329146 -.00000050  00000+0  34175-3 0  9998
2 26082  51.9863  43.2375 0007444  57.0619  24.1497 12.43476159514079
GLOBALSTAR M060         
1 26083U 00008C   25308.50213926 -.00000139  00000+0 -48189-3 0  9990
2 26083  52.0047  23.0129 0003494  60.5814 313.1961 12.17667993169461
GLOBALSTAR M064         
1 26084U 00008D   25308.42130029 -.00000050  00000+0  46667-3 0  9994
2 26084  52.0013 199.4194 0001671   4.8824 355.2024 11.88537753183776
GLOBALSTAR M065         
1 31571U 07020A   25307.84486838 -.00000029  00000+0  41754-3 0  9997
2 31571  51.9869 161.1910 0009015 256.9518 115.9585 12.62012591851048
GLOBALSTAR M069         
1 31573U 07020C   25308.38635398 -.00000040  00000+0  48581-3 0  9994
2 31573  52.0009 168.3984 0002767  57.8414 112.6289 12.23462931851283
GLOBALSTAR M072         
1 31574U 07020D   25308.41197226 -.00000060  00000+0  33221-3 0  9999
2 31574  51.9954 338.6584 0001006 227.5636 145.4366 11.91652823848186
GLOBALSTAR M071         
1 31576U 07020F   25308.02756588  .00000020  00000+0  10966-2 0  9995
2 31576  52.0047 198.9747 0001754  50.4823  54.2674 12.18260869511981
